[{"OBJECT_NAME":"STARLINK-3884","OBJECT_ID":"2022-049AY","EPOCH":"2026-03-09T05:17:44.107296","MEAN_MOTION":15.08852278,"ECCENTRICITY":6.456e-5,"INCLINATION":53.2171,"RA_OF_ASC_NODE":51.2237,"ARG_OF_PERICENTER":85.1148,"MEAN_ANOMALY":274.9918,"EPHEMERIS_TYPE":0,"CLASSIFICATION_TYPE":"U","NORAD_CAT_ID":52497,"ELEMENT_SET_NO":999,"REV_AT_EPOCH":21232,"BSTAR":0.00017123826,"MEAN_MOTION_DOT":2.44e-5,"MEAN_MOTION_DDOT":0},{"OBJECT_NAME":"SL-6 R\/B(2)","OBJECT_ID":"1990-055D","EPOCH":"2026-03-09T21:41:59.551872","MEAN_MOTION":15.03595553,"ECCENTRICITY":0.00247741,"INCLINATION":62.7825,"RA_OF_ASC_NODE":253.121,"ARG_OF_PERICENTER":347.1508,"MEAN_ANOMALY":12.8957,"EPHEMERIS_TYPE":0,"CLASSIFICATION_TYPE":"U","NORAD_CAT_ID":20666,"ELEMENT_SET_NO":999,"REV_AT_EPOCH":93822,"BSTAR":0.00020900577,"MEAN_MOTION_DOT":2.688e-5,"MEAN_MOTION_DDOT":0}]
